APRIZESAT 2             
1 28366U 04025A   26179.41756124  .00000193  00000+0  73123-4 0  9993
2 28366  98.1022 344.7627 0104823 215.6007 143.8159 14.38040359153255
SAUDICOMSAT 1           
1 28369U 04025D   26179.49681104  .00000355  00000+0  92547-4 0  9990
2 28369  98.5770 189.9333 0031907 351.2263   8.8372 14.55482191165778
SAUDICOMSAT 2           
1 28370U 04025E   26179.58019392  .00000210  00000+0  65859-4 0  9992
2 28370  98.6639 192.1487 0054568 224.3422 135.3394 14.49986872161758
APRIZESAT 1             
1 28372U 04025G   26179.52887794  .00000263  00000+0  76701-4 0  9993
2 28372  98.6303 190.5631 0045605 120.0106 240.5625 14.51783138163553
NANOSAT-1               
1 28493U 04049B   26179.32320205  .00000998  00000+0  13871-3 0  9993
2 28493  98.2288 316.2572 0002773 250.0237 110.0676 14.80180385157090
SAUDICOMSAT 7           
1 31119U 07012C   26179.44201351  .00000492  00000+0  96982-4 0  9992
2 31119  98.3784 153.8043 0056090 159.9363 200.4063 14.66120353 24086
SAUDICOMSAT 6           
1 31121U 07012E   26179.44686371  .00000476  00000+0  10079-3 0  9998
2 31121  98.4103 147.1731 0070487 292.2239  67.1495 14.62570191 21836
SAUDICOMSAT 5           
1 31124U 07012H   26179.46787989  .00000695  00000+0  12784-3 0  9998
2 31124  98.3494 154.5753 0048746  90.1344 270.5446 14.68170910 25259
SAUDICOMSAT 3           
1 31125U 07012J   26179.47687621  .00000852  00000+0  14690-3 0  9995
2 31125  98.3148 155.1318 0039541  18.3269 341.9351 14.70724356 26487
SAUDICOMSAT 4           
1 31127U 07012L   26179.15459153  .00000391  00000+0  81667-4 0  9996
2 31127  98.3989 151.9491 0062431 223.3177 136.3108 14.64521647 22896
APRIZESAT 4             
1 35684U 09041D   26179.18093039  .00000652  00000+0  84372-4 0  9998
2 35684  98.1411 254.7205 0041933 286.4455  73.2152 14.83892697912998
APRIZESAT 3             
1 35686U 09041F   26179.40068182  .00000810  00000+0  74836-4 0  9996
2 35686  98.2075 333.1626 0062356  31.0849 329.4037 14.96272950918058
S-NET D                 
1 43186U 18014G   26179.54543119  .00005001  00000+0  25802-3 0  9998
2 43186  97.5360  84.2655 0007676 352.7322   7.3799 15.16775504460482
S-NET B                 
1 43187U 18014H   26179.62307825  .00005029  00000+0  25961-3 0  9996
2 43187  97.5363  84.3296 0008141 346.4195  13.6818 15.16746001460497
S-NET A                 
1 43188U 18014J   26179.47827560  .00005036  00000+0  25970-3 0  9991
2 43188  97.5374  84.3969 0008061 348.0349  12.0692 15.16783506460479
S-NET C                 
1 43189U 18014K   26179.62701191  .00004923  00000+0  25424-3 0  9998
2 43189  97.5390  84.6210 0009157 337.6520  22.4313 15.16737862459042
SALSAT                  
1 46495U 20068K   26179.59166665  .00006710  00000+0  23412-3 0  9991
2 46495  97.8846 183.3517 0007859 259.1040 100.9315 15.29955960317102
OOV-CUBE (TUBSAT-30)    
1 60240U 24128F   26179.36696796  .00001714  00000+0  14069-3 0  9991
2 60240  61.9924 186.5879 0043237 136.2488 224.2043 15.02811881107796
LPNTSAT-001 (IOD-1)     
1 68408U 26065A   26179.60815089  .00002656  00000+0  13136-3 0  9992
2 68408  97.4007  59.8759 0015459 330.1341  29.9009 15.18593724 13993
